NORAD_CAT_ID,OBJECT_NAME,OBJECT_TYPE,EPOCH,MEAN_MOTION,ECCENTRICITY,INCLINATION,RA_OF_ASC_NODE,ARG_OF_PERICENTER,MEAN_ANOMALY,BSTAR,MEAN_MOTION_DOT,MEAN_MOTION_DDOT,TLE_LINE0,TLE_LINE1,TLE_LINE2,SEMIMAJOR_AXIS,PERIOD,APOGEE,PERIGEE,DECAYED
52633.0,STARLINK-3994,PAYLOAD,2022-05-29 12:00:00,15.73182846,0.0001058,53.2141,7.0153,119.0915,358.0749,-0.00034431,-0.00048626,0.0,0 STARLINK-3994,1 52633U 22052AM  22149.50001157 -.00048626  00000-0 -34431-3 0  9993,2 52633  53.2141   7.0153 0001058 119.0915 358.0749 15.73182846  2691,6727.944,91.534,350.521,349.097,0.0
52633.0,STARLINK-3994,PAYLOAD,2022-05-29 14:00:01,15.73188516,0.0001102,53.2143,6.6028,119.6659,109.7223,-0.0005631,-0.0007887,0.0,0 STARLINK-3994,1 52633U 22052AM  22149.58334491 -.00078870  00000-0 -56310-3 0  9995,2 52633  53.2143   6.6028 0001102 119.6659 109.7223 15.73188516  1305,6727.928000000001,91.534,350.534,349.051,0.0
52633.0,STARLINK-3994,PAYLOAD,2022-05-29 20:39:09,15.73184289,6.55e-05,53.2145,5.2315,109.8831,250.2259,-2.719800000000001e-05,-4.431e-05,0.0,0 STARLINK-3994,1 52633U 22052AM  22149.86052717 -.00004431  00000-0 -27198-4 0  9999,2 52633  53.2145   5.2315 0000655 109.8831 250.2259 15.73184289  2389,6727.94,91.534,350.246,349.36400000000015,0.0
52633.0,STARLINK-3994,PAYLOAD,2022-05-30 04:00:00,15.73127202,8.859999999999999e-05,53.2136,3.718,105.4452,189.4666,0.00059084,0.00082862,0.0,0 STARLINK-3994,1 52633U 22052AM  22150.16667824  .00082862  00000-0  59084-3 0  9995,2 52633  53.2136   3.7180 0000886 105.4452 189.4666 15.73127202  2791,6728.103,91.537,350.564,349.372,0.0
52633.0,STARLINK-3994,PAYLOAD,2022-05-30 14:00:01,15.73238481,9.55e-05,53.2139,1.6545,124.3976,11.595,0.0003285,0.0004581,0.0,0 STARLINK-3994,1 52633U 22052AM  22150.58334491  .00045810  00000-0  32850-3 0  9996,2 52633  53.2139   1.6545 0000955 124.3976  11.5950 15.73238481  1303,6727.785,91.531,350.293,349.0080000000001,0.0
52633.0,STARLINK-3994,PAYLOAD,2022-05-30 22:00:00,15.73232547,8.99e-05,53.2138,0.0069999999999999,102.8412,122.1523,-1.0241e-05,-2.058e-05,0.0,0 STARLINK-3994,1 52633U 22052AM  22150.91667824 -.00002058  00000-0 -10241-4 0  9992,2 52633  53.2138   0.0070 0000899 102.8412 122.1523 15.73232547  1303,6727.802,91.531,350.272,349.06300000000016,0.0
52633.0,STARLINK-3994,PAYLOAD,2022-05-31 04:00:00,15.73260673,9.82e-05,53.2135,358.7691,103.547,98.1577,-0.00069829,-0.00097739,0.0,0 STARLINK-3994,1 52633U 22052AM  22151.16667824 -.00097739  00000-0 -69829-3 0  9995,2 52633  53.2135 358.7691 0000982 103.5470  98.1577 15.73260673  2951,6727.722,91.53,350.24800000000016,348.927,0.0
52633.0,STARLINK-3994,PAYLOAD,2022-05-31 06:00:02,15.73239493,0.0001026,53.2138,358.3559,107.8332,206.1845,-0.00053263,-0.00074833,0.0,0 STARLINK-3994,1 52633U 22052AM  22151.25002315 -.00074833  00000-0 -53263-3 0  9998,2 52633  53.2138 358.3559 0001026 107.8332 206.1845 15.73239493  1300,6727.783,91.531,350.338,348.957,0.0
52633.0,STARLINK-3994,PAYLOAD,2022-05-31 12:00:00,15.73163099,0.0001145,53.2139,357.1174,112.1081,178.5571,0.00060136,0.00084495,0.0,0 STARLINK-3994,1 52633U 22052AM  22151.50001157  .00084495  00000-0  60136-3 0  9999,2 52633  53.2139 357.1174 0001145 112.1081 178.5571 15.73163099  3008,6728.0,91.535,350.636,349.095,0.0
52633.0,STARLINK-3994,PAYLOAD,2022-05-31 19:55:03,15.73237203,9.56e-05,53.2144,355.485,105.7223,254.3902,0.00011479,0.00015545,0.0,0 STARLINK-3994,1 52633U 22052AM  22151.82990268  .00015545  00000-0  11479-3 0  9990,2 52633  53.2144 355.4850 0000956 105.7223 254.3902 15.73237203  2695,6727.7890000000025,91.531,350.297,349.011,0.0
52633.0,STARLINK-3994,PAYLOAD,2022-06-01 04:00:00,15.73214041,8.31e-05,53.2136,353.8196,100.6005,7.9672,0.00011021,0.00014884,0.0,0 STARLINK-3994,1 52633U 22052AM  22152.16667824  .00014884  00000-0  11021-3 0  9995,2 52633  53.2136 353.8196 0000831 100.6005   7.9672 15.73214041  3114,6727.855,91.532,350.279,349.161,0.0
52633.0,STARLINK-3994,PAYLOAD,2022-06-01 20:00:01,15.73196949,0.000104,53.2137,350.5209,98.592,187.8656,0.00019211,0.00026423,0.0,0 STARLINK-3994,1 52633U 22052AM  22152.83334491  .00026423  00000-0  19211-3 0  9991,2 52633  53.2137 350.5209 0001040  98.5920 187.8656 15.73196949  3215,6727.904,91.533,350.469,349.069,0.0
52633.0,STARLINK-3994,PAYLOAD,2022-06-02 19:10:56,15.73210547,0.0001269,53.2154,345.7386,106.5553,253.5607,5.4145e-06,1.4e-06,0.0,0 STARLINK-3994,1 52633U 22052AM  22153.79926402  .00000140  00000-0  54145-5 0  9991,2 52633  53.2154 345.7386 0001269 106.5553 253.5607 15.73210547  3365,6727.865,91.533,350.584,348.876,0.0
52633.0,STARLINK-3994,PAYLOAD,2022-06-03 05:51:18,15.73209842,0.000135,53.2152,343.538,97.3773,262.74,6.0068e-06,2.23e-06,0.0,0 STARLINK-3994,1 52633U 22052AM  22154.24395953  .00000223  00000-0  60068-5 0  9996,2 52633  53.2152 343.5380 0001350  97.3773 262.7400 15.73209842  3072,6727.8669999999975,91.533,350.64,348.824,0.0
52633.0,STARLINK-3994,PAYLOAD,2022-06-03 19:34:36,15.73229475,6.19e-05,53.215,340.7086,118.391,241.7173,5.2153e-05,6.715e-05,0.0,0 STARLINK-3994,1 52633U 22052AM  22154.81569795  .00006715  00000-0  52153-4 0  9993,2 52633  53.2150 340.7086 0000619 118.3910 241.7173 15.73229475  3164,6727.811,91.531,350.093,349.26,0.0
52633.0,STARLINK-3994,PAYLOAD,2022-06-04 00:09:04,15.73194431,0.0001042,53.2151,339.7653,93.1809,266.9331,1.3604e-05,1.29e-05,0.0,0 STARLINK-3994,1 52633U 22052AM  22155.00629774  .00001290  00000-0  13604-4 0  9990,2 52633  53.2151 339.7653 0001042  93.1809 266.9331 15.73194431  3552,6727.911,91.534,350.477,349.075,0.0
52633.0,STARLINK-3994,PAYLOAD,2022-06-04 12:20:53,15.73211003,0.0001139,53.215,337.2502,97.2304,262.8846,2.1587e-05,2.412e-05,0.0,0 STARLINK-3994,1 52633U 22052AM  22155.51451137  .00002412  00000-0  21587-4 0  9998,2 52633  53.2150 337.2502 0001139  97.2304 262.8846 15.73211003  3639,6727.864000000001,91.533,350.495,348.963,0.0
52633.0,STARLINK-3994,PAYLOAD,2022-06-05 20:00:01,15.73191214,9.42e-05,53.2141,330.726,75.0611,198.6948,0.00032688,0.00045487,0.0,0 STARLINK-3994,1 52633U 22052AM  22156.83334491  .00045487  00000-0  32688-3 0  9999,2 52633  53.2141 330.7260 0000942  75.0611 198.6948 15.73191214  3847,6727.92,91.534,350.4190000000001,349.151,0.0
52633.0,STARLINK-3994,PAYLOAD,2022-06-05 22:00:00,15.73190725,9.25e-05,53.214,330.3138,72.0194,313.9709,0.00042193,0.00058988,0.0,0 STARLINK-3994,1 52633U 22052AM  22156.91667824  .00058988  00000-0  42193-3 0  9999,2 52633  53.2140 330.3138 0000925  72.0194 313.9709 15.73190725  1302,6727.922,91.534,350.409,349.164,0.0
52633.0,STARLINK-3994,PAYLOAD,2022-06-06 04:00:00,15.73249329,9.19e-05,53.214,329.075,81.1352,281.5546,-0.00069412,-0.00097118,0.0,0 STARLINK-3994,1 52633U 22052AM  22157.16667824 -.00097118  00000-0 -69412-3 0  9990,2 52633  53.2140 329.0750 0000919  81.1352 281.5546 15.73249329  3897,6727.755,91.53,350.23800000000006,349.001,0.0
52633.0,STARLINK-3994,PAYLOAD,2022-06-06 12:00:02,15.73194473,0.000104,53.2145,327.4246,87.6387,4.0563,0.00019187,0.00026386,0.0,0 STARLINK-3994,1 52633U 22052AM  22157.50002315  .00026386  00000-0  19187-3 0  9997,2 52633  53.2145 327.4246 0001040  87.6387   4.0563 15.73194473  3952,6727.911,91.534,350.476,349.076,0.0
52633.0,STARLINK-3994,PAYLOAD,2022-06-06 14:00:01,15.73227285,9.89e-05,53.2145,327.0129,85.3699,118.4837,-0.0003237,-0.00045853,0.0,0 STARLINK-3994,1 52633U 22052AM  22157.58334491 -.00045853  00000-0 -32370-3 0  9999,2 52633  53.2145 327.0129 0000989  85.3699 118.4837 15.73227285  1309,6727.816999999999,91.532,350.348,349.017,0.0
52633.0,STARLINK-3994,PAYLOAD,2022-06-06 22:00:00,15.73157496,8.909999999999997e-05,53.2142,325.3649,61.1152,231.7043,0.00039453,0.00055012,0.0,0 STARLINK-3994,1 52633U 22052AM  22157.91667824  .00055012  00000-0  39453-3 0  9990,2 52633  53.2142 325.3649 0000891  61.1152 231.7043 15.73157496  1306,6728.016,91.536,350.481,349.282,0.0
52633.0,STARLINK-3994,PAYLOAD,2022-06-07 04:00:00,15.73193234,7.64e-05,53.2141,324.1262,67.7925,201.6955,7.374e-05,9.739e-05,0.0,0 STARLINK-3994,1 52633U 22052AM  22158.16667824  .00009739  00000-0  73740-4 0  9991,2 52633  53.2141 324.1262 0000764  67.7925 201.6955 15.73193234  4055,6727.9140000000025,91.534,350.293,349.265,0.0
52633.0,STARLINK-3994,PAYLOAD,2022-06-07 14:00:01,15.73257823,8.71e-05,53.214,322.0646,71.2004,39.4369,-0.00072949,-0.00102013,0.0,0 STARLINK-3994,1 52633U 22052AM  22158.58334491 -.00102013  00000-0 -72949-3 0  9998,2 52633  53.2140 322.0646 0000871  71.2004  39.4369 15.73257823  1300,6727.73,91.53,350.181,349.009,0.0
52633.0,STARLINK-3994,PAYLOAD,2022-06-07 22:00:00,15.73173438,0.0001026,53.2134,320.4164,58.68,140.9408,0.0007077,0.00099774,0.0,0 STARLINK-3994,1 52633U 22052AM  22158.91667824  .00099774  00000-0  70770-3 0  9991,2 52633  53.2134 320.4164 0001026  58.6800 140.9408 15.73173438  1307,6727.971,91.535,350.526,349.146,0.0
52633.0,STARLINK-3994,PAYLOAD,2022-06-08 04:00:01,15.73263292,0.0001031,53.2136,319.1774,68.0874,108.2847,-0.00065415,-0.00091676,0.0,0 STARLINK-3994,1 52633U 22052AM  22159.16668981 -.00091676  00000-0 -65415-3 0  9999,2 52633  53.2136 319.1774 0001031  68.0874 108.2847 15.73263292  4218,6727.715,91.529,350.273,348.886,0.0
52633.0,STARLINK-3994,PAYLOAD,2022-06-08 12:00:00,15.73214261,0.0001082,53.2139,317.5275,75.2482,190.0121,-0.00018721,-0.00026825,0.0,0 STARLINK-3994,1 52633U 22052AM  22159.50001157 -.00026825  00000-0 -18721-3 0  9995,2 52633  53.2139 317.5275 0001082  75.2482 190.0121 15.73214261  4261,6727.855,91.532,350.44699999999995,348.992,0.0
52633.0,STARLINK-3994,PAYLOAD,2022-06-08 14:00:01,15.73237174,0.0001106,53.2139,317.1157,68.2784,309.2093,-0.00066253,-0.00092728,0.0,0 STARLINK-3994,1 52633U 22052AM  22159.58334491 -.00092728  00000-0 -66253-3 0  9991,2 52633  53.2139 317.1157 0001106  68.2784 309.2093 15.73237174  1302,6727.7890000000025,91.531,350.398,348.91,0.0
